[{"OBJECT_NAME":"GSAT0102 (GALILEO-FM2)","OBJECT_ID":"2011-060B","EPOCH":"2022-08-15T10:15:27.111168","MEAN_MOTION":1.70475349,"ECCENTRICITY":0.0001682,"INCLINATION":57.0194,"RA_OF_ASC_NODE":19.7343,"ARG_OF_PERICENTER":15.0567,"MEAN_ANOMALY":349.0531,"EPHEMERIS_TYPE":0,"CLASSIFICATION_TYPE":"U","NORAD_CAT_ID":37847,"ELEMENT_SET_NO":999,"REV_AT_EPOCH":6723,"BSTAR":0,"MEAN_MOTION_DOT":-9.3e-7,"MEAN_MOTION_DDOT":0},{"OBJECT_NAME":"LUCH 5A","OBJECT_ID":"2011-074B","EPOCH":"2022-08-18T08:49:53.203296","MEAN_MOTION":1.00269323,"ECCENTRICITY":0.0005123,"INCLINATION":5.1695,"RA_OF_ASC_NODE":96.5247,"ARG_OF_PERICENTER":27.0704,"MEAN_ANOMALY":142.528,"EPHEMERIS_TYPE":0,"CLASSIFICATION_TYPE":"U","NORAD_CAT_ID":37951,"ELEMENT_SET_NO":999,"REV_AT_EPOCH":3916,"BSTAR":0,"MEAN_MOTION_DOT":-5.8e-7,"MEAN_MOTION_DDOT":0},{"OBJECT_NAME":"METEOSAT-10 (MSG-3)","OBJECT_ID":"2012-035B","EPOCH":"2022-08-18T06:49:01.259904","MEAN_MOTION":1.00271758,"ECCENTRICITY":3.86e-5,"INCLINATION":1.6138,"RA_OF_ASC_NODE":44.5812,"ARG_OF_PERICENTER":60.7369,"MEAN_ANOMALY":332.7273,"EPHEMERIS_TYPE":0,"CLASSIFICATION_TYPE":"U","NORAD_CAT_ID":38552,"ELEMENT_SET_NO":999,"REV_AT_EPOCH":3719,"BSTAR":0,"MEAN_MOTION_DOT":5.2e-7,"MEAN_MOTION_DDOT":0},{"OBJECT_NAME":"SARSAT 13 (METOP-B)","OBJECT_ID":"2012-049A","EPOCH":"2022-08-18T12:11:28.797216","MEAN_MOTION":14.21501977,"ECCENTRICITY":7.55e-5,"INCLINATION":98.6913,"RA_OF_ASC_NODE":289.329,"ARG_OF_PERICENTER":134.9142,"MEAN_ANOMALY":338.4948,"EPHEMERIS_TYPE":0,"CLASSIFICATION_TYPE":"U","NORAD_CAT_ID":38771,"ELEMENT_SET_NO":999,"REV_AT_EPOCH":51455,"BSTAR":4.3733e-5,"MEAN_MOTION_DOT":5.2e-7,"MEAN_MOTION_DDOT":0},{"OBJECT_NAME":"GPS BIIF-3","OBJECT_ID":"2012-053A","EPOCH":"2022-08-18T07:26:42.283968","MEAN_MOTION":2.00562598,"ECCENTRICITY":0.0126554,"INCLINATION":53.5288,"RA_OF_ASC_NODE":200.8172,"ARG_OF_PERICENTER":46.7953,"MEAN_ANOMALY":314.2324,"EPHEMERIS_TYPE":0,"CLASSIFICATION_TYPE":"U","NORAD_CAT_ID":38833,"ELEMENT_SET_NO":999,"REV_AT_EPOCH":7138,"BSTAR":0,"MEAN_MOTION_DOT":5.3e-7,"MEAN_MOTION_DDOT":0},{"OBJECT_NAME":"GSAT0103 (GALILEO-FM3)","OBJECT_ID":"2012-055A","EPOCH":"2022-08-16T02:56:59.186400","MEAN_MOTION":1.70473742,"ECCENTRICITY":0.0003411,"INCLINATION":55.1526,"RA_OF_ASC_NODE":140.0588,"ARG_OF_PERICENTER":269.284,"MEAN_ANOMALY":90.7052,"EPHEMERIS_TYPE":0,"CLASSIFICATION_TYPE":"U","NORAD_CAT_ID":38857,"ELEMENT_SET_NO":999,"REV_AT_EPOCH":6112,"BSTAR":0,"MEAN_MOTION_DOT":-1.6e-7,"MEAN_MOTION_DDOT":0},{"OBJECT_NAME":"GSAT0104 (GALILEO-FM4)","OBJECT_ID":"2012-055B","EPOCH":"2022-08-16T02:13:48.961056","MEAN_MOTION":1.70474027,"ECCENTRICITY":0.000101,"INCLINATION":55.1528,"RA_OF_ASC_NODE":140.0613,"ARG_OF_PERICENTER":268.2719,"MEAN_ANOMALY":91.7448,"EPHEMERIS_TYPE":0,"CLASSIFICATION_TYPE":"U","NORAD_CAT_ID":38858,"ELEMENT_SET_NO":999,"REV_AT_EPOCH":6112,"BSTAR":0,"MEAN_MOTION_DOT":-1.6e-7,"MEAN_MOTION_DDOT":0},{"OBJECT_NAME":"GPS BIIF-4","OBJECT_ID":"2013-023A","EPOCH":"2022-08-18T04:02:45.238560","MEAN_MOTION":2.00565568,"ECCENTRICITY":0.0103964,"INCLINATION":55.6535,"RA_OF_ASC_NODE":325.3946,"ARG_OF_PERICENTER":38.619,"MEAN_ANOMALY":322.1553,"EPHEMERIS_TYPE":0,"CLASSIFICATION_TYPE":"U","NORAD_CAT_ID":39166,"ELEMENT_SET_NO":999,"REV_AT_EPOCH":6782,"BSTAR":0,"MEAN_MOTION_DOT":-1.01e-6,"MEAN_MOTION_DDOT":0},{"OBJECT_NAME":"INSAT-3D","OBJECT_ID":"2013-038B","EPOCH":"2022-08-18T12:19:56.244288","MEAN_MOTION":1.00271923,"ECCENTRICITY":0.0001481,"INCLINATION":0.0702,"RA_OF_ASC_NODE":275.015,"ARG_OF_PERICENTER":283.1384,"MEAN_ANOMALY":35.8128,"EPHEMERIS_TYPE":0,"CLASSIFICATION_TYPE":"U","NORAD_CAT_ID":39216,"ELEMENT_SET_NO":999,"REV_AT_EPOCH":3307,"BSTAR":0,"MEAN_MOTION_DOT":-1.64e-6,"MEAN_MOTION_DDOT":0},{"OBJECT_NAME":"GPS BIIF-5","OBJECT_ID":"2014-008A","EPOCH":"2022-08-18T04:04:45.069312","MEAN_MOTION":2.00556975,"ECCENTRICITY":0.0060747,"INCLINATION":53.6218,"RA_OF_ASC_NODE":206.3355,"ARG_OF_PERICENTER":209.837,"MEAN_ANOMALY":149.798,"EPHEMERIS_TYPE":0,"CLASSIFICATION_TYPE":"U","NORAD_CAT_ID":39533,"ELEMENT_SET_NO":999,"REV_AT_EPOCH":6162,"BSTAR":0,"MEAN_MOTION_DOT":5.7e-7,"MEAN_MOTION_DDOT":0},{"OBJECT_NAME":"LUCH 5V","OBJECT_ID":"2014-023A","EPOCH":"2022-08-18T12:23:34.734336","MEAN_MOTION":1.0026868,"ECCENTRICITY":0.000367,"INCLINATION":1.6406,"RA_OF_ASC_NODE":76.2393,"ARG_OF_PERICENTER":92.4569,"MEAN_ANOMALY":78.7132,"EPHEMERIS_TYPE":0,"CLASSIFICATION_TYPE":"U","NORAD_CAT_ID":39727,"ELEMENT_SET_NO":999,"REV_AT_EPOCH":3033,"BSTAR":0,"MEAN_MOTION_DOT":-2.76e-6,"MEAN_MOTION_DDOT":0},{"OBJECT_NAME":"GPS BIIF-6","OBJECT_ID":"2014-026A","EPOCH":"2022-08-17T10:54:59.778720","MEAN_MOTION":2.00551691,"ECCENTRICITY":0.0026237,"INCLINATION":56.5946,"RA_OF_ASC_NODE":25.8567,"ARG_OF_PERICENTER":305.6385,"MEAN_ANOMALY":54.1277,"EPHEMERIS_TYPE":0,"CLASSIFICATION_TYPE":"U","NORAD_CAT_ID":39741,"ELEMENT_SET_NO":999,"REV_AT_EPOCH":6046,"BSTAR":0,"MEAN_MOTION_DOT":-8.8e-7,"MEAN_MOTION_DDOT":0},{"OBJECT_NAME":"GPS BIIF-7","OBJECT_ID":"2014-045A","EPOCH":"2022-08-18T00:51:26.136288","MEAN_MOTION":2.00551459,"ECCENTRICITY":0.002151,"INCLINATION":54.7034,"RA_OF_ASC_NODE":144.3461,"ARG_OF_PERICENTER":111.0078,"MEAN_ANOMALY":249.2452,"EPHEMERIS_TYPE":0,"CLASSIFICATION_TYPE":"U","NORAD_CAT_ID":40105,"ELEMENT_SET_NO":999,"REV_AT_EPOCH":5801,"BSTAR":0,"MEAN_MOTION_DOT":-2.0e-7,"MEAN_MOTION_DDOT":0},{"OBJECT_NAME":"GSAT0201 (GALILEO 5)","OBJECT_ID":"2014-050A","EPOCH":"2022-08-18T04:39:46.765728","MEAN_MOTION":1.85519082,"ECCENTRICITY":0.1623517,"INCLINATION":50.2415,"RA_OF_ASC_NODE":329.8234,"ARG_OF_PERICENTER":126.2991,"MEAN_ANOMALY":249.8217,"EPHEMERIS_TYPE":0,"CLASSIFICATION_TYPE":"U","NORAD_CAT_ID":40128,"ELEMENT_SET_NO":999,"REV_AT_EPOCH":5236,"BSTAR":0,"MEAN_MOTION_DOT":-1.26e-6,"MEAN_MOTION_DDOT":0},{"OBJECT_NAME":"GSAT0202 (GALILEO 6)","OBJECT_ID":"2014-050B","EPOCH":"2022-08-16T07:10:41.248992","MEAN_MOTION":1.85519557,"ECCENTRICITY":0.1620726,"INCLINATION":50.2669,"RA_OF_ASC_NODE":328.9613,"ARG_OF_PERICENTER":127.0427,"MEAN_ANOMALY":248.9155,"EPHEMERIS_TYPE":0,"CLASSIFICATION_TYPE":"U","NORAD_CAT_ID":40129,"ELEMENT_SET_NO":999,"REV_AT_EPOCH":5449,"BSTAR":0,"MEAN_MOTION_DOT":-1.2e-6,"MEAN_MOTION_DDOT":0},{"OBJECT_NAME":"GPS BIIF-8","OBJECT_ID":"2014-068A","EPOCH":"2022-08-17T21:48:16.341408","MEAN_MOTION":2.00575847,"ECCENTRICITY":0.0042702,"INCLINATION":55.8612,"RA_OF_ASC_NODE":85.5072,"ARG_OF_PERICENTER":57.5875,"MEAN_ANOMALY":302.8971,"EPHEMERIS_TYPE":0,"CLASSIFICATION_TYPE":"U","NORAD_CAT_ID":40294,"ELEMENT_SET_NO":999,"REV_AT_EPOCH":5714,"BSTAR":0,"MEAN_MOTION_DOT":-5.5e-7,"MEAN_MOTION_DDOT":0},{"OBJECT_NAME":"GLONASS-K 2","OBJECT_ID":"2014-075A","EPOCH":"2022-08-18T11:49:21.688896","MEAN_MOTION":2.13101456,"ECCENTRICITY":0.0019511,"INCLINATION":63.6825,"RA_OF_ASC_NODE":238.9978,"ARG_OF_PERICENTER":212.3155,"MEAN_ANOMALY":189.0161,"EPHEMERIS_TYPE":0,"CLASSIFICATION_TYPE":"U","NORAD_CAT_ID":40315,"ELEMENT_SET_NO":999,"REV_AT_EPOCH":6005,"BSTAR":0,"MEAN_MOTION_DOT":7.2e-7,"MEAN_MOTION_DDOT":0}]