GSAT0102 (GALILEO-FM2)  
1 37847U 11060B   22227.42739712 -.00000093  00000+0  00000+0 0  9998
2 37847  57.0194  19.7343 0001682  15.0567 349.0531  1.70475349 67238
LUCH 5A                 
1 37951U 11074B   22230.36797689 -.00000058  00000+0  00000+0 0  9994
2 37951   5.1695  96.5247 0005123  27.0704 142.5280  1.00269323 39164
METEOSAT-10 (MSG-3)     
1 38552U 12035B   22230.28404236  .00000052  00000+0  00000+0 0  9997
2 38552   1.6138  44.5812 0000386  60.7369 332.7273  1.00271758 37194
METOP-B                 
1 38771U 12049A   22230.50797219  .00000052  00000+0  43733-4 0  9991
2 38771  98.6913 289.3290 0000755 134.9142 338.4948 14.21501977514554
NAVSTAR 67 (USA 239)    
1 38833U 12053A   22230.31021162  .00000053  00000+0  00000+0 0  9997
2 38833  53.5288 200.8172 0126554  46.7953 314.2324  2.00562598 71380
GSAT0103 (GALILEO-FM3)  
1 38857U 12055A   22228.12290725 -.00000016  00000+0  00000+0 0  9994
2 38857  55.1526 140.0588 0003411 269.2840  90.7052  1.70473742 61121
GSAT0104 (GALILEO-FM4)  
1 38858U 12055B   22228.09292779 -.00000016  00000+0  00000+0 0  9992
2 38858  55.1528 140.0613 0001010 268.2719  91.7448  1.70474027 61127
NAVSTAR 68 (USA 242)    
1 39166U 13023A   22230.16857915 -.00000101  00000+0  00000+0 0  9996
2 39166  55.6535 325.3946 0103964  38.6190 322.1553  2.00565568 67829
INSAT-3D                
1 39216U 13038B   22230.51384542 -.00000164  00000+0  00000+0 0  9997
2 39216   0.0702 275.0150 0001481 283.1384  35.8128  1.00271923 33070
NAVSTAR 69 (USA 248)    
1 39533U 14008A   22230.16996608  .00000057  00000+0  00000+0 0  9990
2 39533  53.6218 206.3355 0060747 209.8370 149.7980  2.00556975 61629
LUCH 5V                 
1 39727U 14023A   22230.51637424 -.00000276  00000+0  00000+0 0  9993
2 39727   1.6406  76.2393 0003670  92.4569  78.7132  1.00268680 30336
NAVSTAR 70 (USA 251)    
1 39741U 14026A   22229.45485855 -.00000088  00000+0  00000+0 0  9993
2 39741  56.5946  25.8567 0026237 305.6385  54.1277  2.00551691 60465
NAVSTAR 71 (USA 256)    
1 40105U 14045A   22230.03571917 -.00000020  00000+0  00000+0 0  9997
2 40105  54.7034 144.3461 0021510 111.0078 249.2452  2.00551459 58018
GSAT0201 (GALILEO 5)    
1 40128U 14050A   22230.19429127 -.00000126  00000+0  00000+0 0  9997
2 40128  50.2415 329.8234 1623517 126.2991 249.8217  1.85519082 52368
GSAT0202 (GALILEO 6)    
1 40129U 14050B   22228.29908853 -.00000120  00000+0  00000+0 0  9998
2 40129  50.2669 328.9613 1620726 127.0427 248.9155  1.85519557 54497
NAVSTAR 72 (USA 258)    
1 40294U 14068A   22229.90852247 -.00000055  00000+0  00000+0 0  9991
2 40294  55.8612  85.5072 0042702  57.5875 302.8971  2.00575847 57142
COSMOS 2501 [GLONASS-K] 
1 40315U 14075A   22230.49261214  .00000072  00000+0  00000+0 0  9995
2 40315  63.6825 238.9978 0019511 212.3155 189.0161  2.13101456 60057
